ZORKY-2M 7              
1 67268U 25313W   26022.23097823  .00012413  00000+0  57133-3 0  9991
2 67268  97.4101  99.2641 0016104 152.4086 207.8007 15.20341429  3752
2025-313X               
1 67269U 25313X   26022.16310366  .00019743  00000+0  89863-3 0  9992
2 67269  97.4126  99.2202 0015831 151.3044 208.9066 15.20625771  3742
SITRO-TD-3              
1 67270U 25313Y   26022.16512135  .00014913  00000+0  68467-3 0  9993
2 67270  97.4099  99.2102 0016044 152.7994 207.4085 15.20386283  3745
2025-313Z               
1 67271U 25313Z   26022.23260702  .00008112  00000+0  37704-3 0  9996
2 67271  97.4096  99.2626 0016226 148.6064 211.6143 15.20121109  3755
2025-313AA              
1 67272U 25313AA  26022.22844379  .00016354  00000+0  74571-3 0  9994
2 67272  97.4100  99.2669 0015781 152.9625 207.2436 15.20604563  3751
2025-313AB              
1 67273U 25313AB  26022.23260377  .00005956  00000+0  27825-3 0  9992
2 67273  97.4114  99.2673 0015193 156.7383 203.4543 15.20075265  3750
2025-313AC              
1 67274U 25313AC  26022.23056446  .00010553  00000+0  48667-3 0  9999
2 67274  97.4089  99.2707 0015875 152.0227 208.1865 15.20319156  3752
2025-313AD              
1 67275U 25313AD  26022.22964099  .00011266  00000+0  51841-3 0  9991
2 67275  97.4063  99.2642 0015046 154.7340 205.4635 15.20388249  3752
2025-313AE              
1 67276U 25313AE  26022.22961613  .00011248  00000+0  51768-3 0  9999
2 67276  97.4068  99.2653 0015002 154.8054 205.3917 15.20384647  3755
2025-313AF              
1 67277U 25313AF  26022.23001885  .00010013  00000+0  46191-3 0  9990
2 67277  97.4070  99.2657 0015015 154.6719 205.5255 15.20336167  3754
2025-313AG              
1 67278U 25313AG  26022.22977376  .00010017  00000+0  46186-3 0  9995
2 67278  97.4073  99.2669 0014956 154.5010 205.6966 15.20354267  3769
GALAPAGOS-UTE-SWSU      
1 67279U 25313AH  26022.22877467  .00011629  00000+0  53392-3 0  9993
2 67279  97.4083  99.2715 0015509 151.6661 208.5421 15.20451609  3753
