CCSDS_OMM_VERS = 2.0
CREATION_DATE  = 
ORIGINATOR     = 

OBJECT_NAME    = ZORKY-2M 7
OBJECT_ID      = 2025-313W
CENTER_NAME    = EARTH
REF_FRAME      = TEME
TIME_SYSTEM    = UTC
MEAN_ELEMENT_THEORY = SGP/SGP4

EPOCH          = 2026-01-22T05:32:36.519072
MEAN_MOTION    = 15.20341429
ECCENTRICITY   = .00161049
INCLINATION    = 97.4101
RA_OF_ASC_NODE = 99.2641
ARG_OF_PERICENTER = 152.4086
MEAN_ANOMALY   = 207.8007

EPHEMERIS_TYPE = 0
CLASSIFICATION_TYPE = U
NORAD_CAT_ID   = 67268
ELEMENT_SET_NO = 999
REV_AT_EPOCH   = 375
BSTAR          = .57132565E-3
MEAN_MOTION_DOT = .12413E-3
MEAN_MOTION_DDOT = 0

CCSDS_OMM_VERS = 2.0
CREATION_DATE  = 
ORIGINATOR     = 

OBJECT_NAME    = 2025-313X
OBJECT_ID      = 2025-313X
CENTER_NAME    = EARTH
REF_FRAME      = TEME
TIME_SYSTEM    = UTC
MEAN_ELEMENT_THEORY = SGP/SGP4

EPOCH          = 2026-01-22T03:54:52.156224
MEAN_MOTION    = 15.20625771
ECCENTRICITY   = .00158312
INCLINATION    = 97.4126
RA_OF_ASC_NODE = 99.2202
ARG_OF_PERICENTER = 151.3044
MEAN_ANOMALY   = 208.9066

EPHEMERIS_TYPE = 0
CLASSIFICATION_TYPE = U
NORAD_CAT_ID   = 67269
ELEMENT_SET_NO = 999
REV_AT_EPOCH   = 374
BSTAR          = .89862885E-3
MEAN_MOTION_DOT = .19743E-3
MEAN_MOTION_DDOT = 0

CCSDS_OMM_VERS = 2.0
CREATION_DATE  = 
ORIGINATOR     = 

OBJECT_NAME    = SITRO-TD-3
OBJECT_ID      = 2025-313Y
CENTER_NAME    = EARTH
REF_FRAME      = TEME
TIME_SYSTEM    = UTC
MEAN_ELEMENT_THEORY = SGP/SGP4

EPOCH          = 2026-01-22T03:57:46.484640
MEAN_MOTION    = 15.20386283
ECCENTRICITY   = .00160445
INCLINATION    = 97.4099
RA_OF_ASC_NODE = 99.2102
ARG_OF_PERICENTER = 152.7994
MEAN_ANOMALY   = 207.4085

EPHEMERIS_TYPE = 0
CLASSIFICATION_TYPE = U
NORAD_CAT_ID   = 67270
ELEMENT_SET_NO = 999
REV_AT_EPOCH   = 374
BSTAR          = .68467198E-3
MEAN_MOTION_DOT = .14913E-3
MEAN_MOTION_DDOT = 0

CCSDS_OMM_VERS = 2.0
CREATION_DATE  = 
ORIGINATOR     = 

OBJECT_NAME    = 2025-313Z
OBJECT_ID      = 2025-313Z
CENTER_NAME    = EARTH
REF_FRAME      = TEME
TIME_SYSTEM    = UTC
MEAN_ELEMENT_THEORY = SGP/SGP4

EPOCH          = 2026-01-22T05:34:57.246528
MEAN_MOTION    = 15.20121109
ECCENTRICITY   = .00162266
INCLINATION    = 97.4096
RA_OF_ASC_NODE = 99.2626
ARG_OF_PERICENTER = 148.6064
MEAN_ANOMALY   = 211.6143

EPHEMERIS_TYPE = 0
CLASSIFICATION_TYPE = U
NORAD_CAT_ID   = 67271
ELEMENT_SET_NO = 999
REV_AT_EPOCH   = 375
BSTAR          = .37704011E-3
MEAN_MOTION_DOT = .8112E-4
MEAN_MOTION_DDOT = 0

CCSDS_OMM_VERS = 2.0
CREATION_DATE  = 
ORIGINATOR     = 

OBJECT_NAME    = 2025-313AA
OBJECT_ID      = 2025-313AA
CENTER_NAME    = EARTH
REF_FRAME      = TEME
TIME_SYSTEM    = UTC
MEAN_ELEMENT_THEORY = SGP/SGP4

EPOCH          = 2026-01-22T05:28:57.543456
MEAN_MOTION    = 15.20604563
ECCENTRICITY   = .00157814
INCLINATION    = 97.4100
RA_OF_ASC_NODE = 99.2669
ARG_OF_PERICENTER = 152.9625
MEAN_ANOMALY   = 207.2436

EPHEMERIS_TYPE = 0
CLASSIFICATION_TYPE = U
NORAD_CAT_ID   = 67272
ELEMENT_SET_NO = 999
REV_AT_EPOCH   = 375
BSTAR          = .74571448E-3
MEAN_MOTION_DOT = .16354E-3
MEAN_MOTION_DDOT = 0

CCSDS_OMM_VERS = 2.0
CREATION_DATE  = 
ORIGINATOR     = 

OBJECT_NAME    = 2025-313AB
OBJECT_ID      = 2025-313AB
CENTER_NAME    = EARTH
REF_FRAME      = TEME
TIME_SYSTEM    = UTC
MEAN_ELEMENT_THEORY = SGP/SGP4

EPOCH          = 2026-01-22T05:34:56.965728
MEAN_MOTION    = 15.20075265
ECCENTRICITY   = .00151937
INCLINATION    = 97.4114
RA_OF_ASC_NODE = 99.2673
ARG_OF_PERICENTER = 156.7383
MEAN_ANOMALY   = 203.4543

EPHEMERIS_TYPE = 0
CLASSIFICATION_TYPE = U
NORAD_CAT_ID   = 67273
ELEMENT_SET_NO = 999
REV_AT_EPOCH   = 375
BSTAR          = .27824902E-3
MEAN_MOTION_DOT = .5956E-4
MEAN_MOTION_DDOT = 0

CCSDS_OMM_VERS = 2.0
CREATION_DATE  = 
ORIGINATOR     = 

OBJECT_NAME    = 2025-313AC
OBJECT_ID      = 2025-313AC
CENTER_NAME    = EARTH
REF_FRAME      = TEME
TIME_SYSTEM    = UTC
MEAN_ELEMENT_THEORY = SGP/SGP4

EPOCH          = 2026-01-22T05:32:00.769344
MEAN_MOTION    = 15.20319156
ECCENTRICITY   = .0015875
INCLINATION    = 97.4089
RA_OF_ASC_NODE = 99.2707
ARG_OF_PERICENTER = 152.0227
MEAN_ANOMALY   = 208.1865

EPHEMERIS_TYPE = 0
CLASSIFICATION_TYPE = U
NORAD_CAT_ID   = 67274
ELEMENT_SET_NO = 999
REV_AT_EPOCH   = 375
BSTAR          = .48667485E-3
MEAN_MOTION_DOT = .10553E-3
MEAN_MOTION_DDOT = 0

CCSDS_OMM_VERS = 2.0
CREATION_DATE  = 
ORIGINATOR     = 

OBJECT_NAME    = 2025-313AD
OBJECT_ID      = 2025-313AD
CENTER_NAME    = EARTH
REF_FRAME      = TEME
TIME_SYSTEM    = UTC
MEAN_ELEMENT_THEORY = SGP/SGP4

EPOCH          = 2026-01-22T05:30:40.981536
MEAN_MOTION    = 15.20388249
ECCENTRICITY   = .00150462
INCLINATION    = 97.4063
RA_OF_ASC_NODE = 99.2642
ARG_OF_PERICENTER = 154.7340
MEAN_ANOMALY   = 205.4635

EPHEMERIS_TYPE = 0
CLASSIFICATION_TYPE = U
NORAD_CAT_ID   = 67275
ELEMENT_SET_NO = 999
REV_AT_EPOCH   = 375
BSTAR          = .51841103E-3
MEAN_MOTION_DOT = .11266E-3
MEAN_MOTION_DDOT = 0

CCSDS_OMM_VERS = 2.0
CREATION_DATE  = 
ORIGINATOR     = 

OBJECT_NAME    = 2025-313AE
OBJECT_ID      = 2025-313AE
CENTER_NAME    = EARTH
REF_FRAME      = TEME
TIME_SYSTEM    = UTC
MEAN_ELEMENT_THEORY = SGP/SGP4

EPOCH          = 2026-01-22T05:30:38.833632
MEAN_MOTION    = 15.20384647
ECCENTRICITY   = .00150022
INCLINATION    = 97.4068
RA_OF_ASC_NODE = 99.2653
ARG_OF_PERICENTER = 154.8054
MEAN_ANOMALY   = 205.3917

EPHEMERIS_TYPE = 0
CLASSIFICATION_TYPE = U
NORAD_CAT_ID   = 67276
ELEMENT_SET_NO = 999
REV_AT_EPOCH   = 375
BSTAR          = .51768465E-3
MEAN_MOTION_DOT = .11248E-3
MEAN_MOTION_DDOT = 0

CCSDS_OMM_VERS = 2.0
CREATION_DATE  = 
ORIGINATOR     = 

OBJECT_NAME    = 2025-313AF
OBJECT_ID      = 2025-313AF
CENTER_NAME    = EARTH
REF_FRAME      = TEME
TIME_SYSTEM    = UTC
MEAN_ELEMENT_THEORY = SGP/SGP4

EPOCH          = 2026-01-22T05:31:13.628640
MEAN_MOTION    = 15.20336167
ECCENTRICITY   = .00150154
INCLINATION    = 97.4070
RA_OF_ASC_NODE = 99.2657
ARG_OF_PERICENTER = 154.6719
MEAN_ANOMALY   = 205.5255

EPHEMERIS_TYPE = 0
CLASSIFICATION_TYPE = U
NORAD_CAT_ID   = 67277
ELEMENT_SET_NO = 999
REV_AT_EPOCH   = 375
BSTAR          = .46190528E-3
MEAN_MOTION_DOT = .10013E-3
MEAN_MOTION_DDOT = 0

CCSDS_OMM_VERS = 2.0
CREATION_DATE  = 
ORIGINATOR     = 

OBJECT_NAME    = 2025-313AG
OBJECT_ID      = 2025-313AG
CENTER_NAME    = EARTH
REF_FRAME      = TEME
TIME_SYSTEM    = UTC
MEAN_ELEMENT_THEORY = SGP/SGP4

EPOCH          = 2026-01-22T05:30:52.452864
MEAN_MOTION    = 15.20354267
ECCENTRICITY   = .00149561
INCLINATION    = 97.4073
RA_OF_ASC_NODE = 99.2669
ARG_OF_PERICENTER = 154.5010
MEAN_ANOMALY   = 205.6966

EPHEMERIS_TYPE = 0
CLASSIFICATION_TYPE = U
NORAD_CAT_ID   = 67278
ELEMENT_SET_NO = 999
REV_AT_EPOCH   = 376
BSTAR          = .46186368E-3
MEAN_MOTION_DOT = .10017E-3
MEAN_MOTION_DDOT = 0

CCSDS_OMM_VERS = 2.0
CREATION_DATE  = 
ORIGINATOR     = 

OBJECT_NAME    = GALAPAGOS-UTE-SWSU
OBJECT_ID      = 2025-313AH
CENTER_NAME    = EARTH
REF_FRAME      = TEME
TIME_SYSTEM    = UTC
MEAN_ELEMENT_THEORY = SGP/SGP4

EPOCH          = 2026-01-22T05:29:26.131488
MEAN_MOTION    = 15.20451609
ECCENTRICITY   = .00155099
INCLINATION    = 97.4083
RA_OF_ASC_NODE = 99.2715
ARG_OF_PERICENTER = 151.6661
MEAN_ANOMALY   = 208.5421

EPHEMERIS_TYPE = 0
CLASSIFICATION_TYPE = U
NORAD_CAT_ID   = 67279
ELEMENT_SET_NO = 999
REV_AT_EPOCH   = 375
BSTAR          = .5339188E-3
MEAN_MOTION_DOT = .11629E-3
MEAN_MOTION_DDOT = 0

